IRIDIUM 144             
1 43249U 18030A   25317.22726105 -.00000053  00000+0 -25878-4 0  9990
2 43249  86.3998  20.6800 0001932  99.0366 261.1048 14.34215900399182
IRIDIUM 149             
1 43250U 18030B   25317.58244445  .00000870  00000+0  30342-3 0  9999
2 43250  86.4001  20.5017 0002050  96.4597 263.6833 14.34219613399250
IRIDIUM 157             
1 43251U 18030C   25317.25263173  .00000186  00000+0  59435-4 0  9998
2 43251  86.4004  20.6881 0002356  96.9451 263.2013 14.34218855399182
IRIDIUM 140             
1 43252U 18030D   25317.41119413 -.00000022  00000+0 -14755-4 0  9991
2 43252  86.4001  20.6344 0001886  97.8478 262.2932 14.34219630399260
IRIDIUM 145             
1 43253U 18030E   25317.60781254  .00000473  00000+0  16174-3 0  9995
2 43253  86.4009  20.5266 0001862 101.5398 258.6008 14.34218704399229
IRIDIUM 146             
1 43254U 18030F   25317.58878790 -.00000015  00000+0 -12360-4 0  9993
2 43254  86.4000  20.5462 0001937 102.1211 258.0202 14.34219263399235
IRIDIUM 148             
1 43255U 18030G   25317.62684132  .00000491  00000+0  16835-3 0  9990
2 43255  86.4001  20.5700 0002274  98.4111 261.7343 14.34221288399274
IRIDIUM 142             
1 43256U 18030H   25317.24628739  .00000268  00000+0  88679-4 0  9998
2 43256  86.3999  20.6259 0001935 107.5895 252.5512 14.34219183399181
